ISS (ZARYA)             
1 25544U 98067A   26076.38694946  .00012661  00000+0  24296-3 0  9991
2 25544  51.6338  34.3055 0006232 201.4845 158.5882 15.48344038557526
POISK                   
1 36086U 09060A   26076.38694946  .00012661  00000+0  24296-3 0  9999
2 36086  51.6338  34.3055 0006232 201.4845 158.5882 15.48344038554447
CSS (TIANHE)            
1 48274U 21035A   26076.58544776  .00020571  00000+0  24025-3 0  9993
2 48274  41.4671 160.1042 0006128 321.3981  38.6419 15.61097073278847
ISS (NAUKA)             
1 49044U 21066A   26076.38694946  .00012661  00000+0  24296-3 0  9997
2 49044  51.6338  34.3055 0006232 201.4845 158.5882 15.48344038554456
FREGAT DEB              
1 49271U 11037PF  26076.58106152  .00011499  00000+0  16301-1 0  9999
2 49271  51.6516 277.0696 0963851  77.5005 293.1834 12.40464481213675
CSS (WENTIAN)           
1 53239U 22085A   26076.58544776  .00020571  00000+0  24025-3 0  9996
2 53239  41.4671 160.1042 0006128 321.3981  38.6419 15.61097073275616
CSS (MENGTIAN)          
1 54216U 22143A   26076.58544776  .00020571  00000+0  24025-3 0  9997
2 54216  41.4671 160.1042 0006128 321.3981  38.6419 15.61097073275588
PROGRESS-MS 31          
1 64751U 25146A   26075.16062931  .00008402  00000+0  16433-3 0  9992
2 64751  51.6332  40.3661 0006342 195.9803 164.0986 15.48306205554467
TIANZHOU-9              
1 64786U 25149A   26076.58544776  .00020571  00000+0  24025-3 0  9999
2 64786  41.4671 160.1042 0006128 321.3981  38.6419 15.61097073275592
PROGRESS-MS 32          
1 65586U 25204A   26076.38694946  .00012661  00000+0  24296-3 0  9994
2 65586  51.6338  34.3055 0006232 201.4845 158.5882 15.48344038554501
YOTSUBA-KULOVER         
1 65941U 98067XN  26076.09475415  .00227916  00000+0  96443-3 0  9996
2 65941  51.6214  18.7815 0004920 122.2013 237.9468 15.84172953 24675
E-KAGAKU-1              
1 65943U 98067XQ  26076.54283053  .00204475  00000+0  88026-3 0  9996
2 65943  51.6236  16.5421 0005559 129.3023 230.8474 15.83870552 24744
